[{"OBJECT_NAME":"BREEZE-M R/B","OBJECT_ID":"2015-005B","EPOCH":"2026-02-28T11:37:57.788832","MEAN_MOTION":1.11107176,"ECCENTRICITY":0.75629159,"INCLINATION":27.2813,"RA_OF_ASC_NODE":283.3244,"ARG_OF_PERICENTER":115.1309,"MEAN_ANOMALY":336.8024,"EPHEMERIS_TYPE":0,"CLASSIFICATION_TYPE":"U","NORAD_CAT_ID":40385,"ELEMENT_SET_NO":999,"REV_AT_EPOCH":4494,"BSTAR":0,"MEAN_MOTION_DOT":-1.95e-6,"MEAN_MOTION_DDOT":0},{"OBJECT_NAME":"ABS-3A","OBJECT_ID":"2015-010A","EPOCH":"2026-03-04T09:10:38.507232","MEAN_MOTION":1.0027082,"ECCENTRICITY":0.00017572,"INCLINATION":0.0132,"RA_OF_ASC_NODE":136.131,"ARG_OF_PERICENTER":150.7553,"MEAN_ANOMALY":9.9254,"EPHEMERIS_TYPE":0,"CLASSIFICATION_TYPE":"U","NORAD_CAT_ID":40424,"ELEMENT_SET_NO":999,"REV_AT_EPOCH":4032,"BSTAR":0,"MEAN_MOTION_DOT":-3.8e-7,"MEAN_MOTION_DDOT":0},{"OBJECT_NAME":"EUTELSAT 115 WEST B","OBJECT_ID":"2015-010B","EPOCH":"2026-03-04T11:43:38.558208","MEAN_MOTION":1.00273307,"ECCENTRICITY":5.6e-6,"INCLINATION":0.0371,"RA_OF_ASC_NODE":355.9853,"ARG_OF_PERICENTER":76.3618,"MEAN_ANOMALY":150.8905,"EPHEMERIS_TYPE":0,"CLASSIFICATION_TYPE":"U","NORAD_CAT_ID":40425,"ELEMENT_SET_NO":999,"REV_AT_EPOCH":4034,"BSTAR":0,"MEAN_MOTION_DOT":-3.6e-7,"MEAN_MOTION_DDOT":0},{"OBJECT_NAME":"MMS 1","OBJECT_ID":"2015-011A","EPOCH":"2026-03-04T22:00:01.999584","MEAN_MOTION":0.28322917,"ECCENTRICITY":0.8412584,"INCLINATION":70.7316,"RA_OF_ASC_NODE":350.2264,"ARG_OF_PERICENTER":165.236,"MEAN_ANOMALY":102.9657,"EPHEMERIS_TYPE":0,"CLASSIFICATION_TYPE":"U","NORAD_CAT_ID":40482,"ELEMENT_SET_NO":999,"REV_AT_EPOCH":133,"BSTAR":0,"MEAN_MOTION_DOT":-1.913e-5,"MEAN_MOTION_DDOT":0},{"OBJECT_NAME":"MMS 2","OBJECT_ID":"2015-011B","EPOCH":"2026-03-04T22:00:01.999584","MEAN_MOTION":0.28322922,"ECCENTRICITY":0.8413315,"INCLINATION":70.7319,"RA_OF_ASC_NODE":350.2285,"ARG_OF_PERICENTER":165.2421,"MEAN_ANOMALY":102.9492,"EPHEMERIS_TYPE":0,"CLASSIFICATION_TYPE":"U","NORAD_CAT_ID":40483,"ELEMENT_SET_NO":999,"REV_AT_EPOCH":133,"BSTAR":0,"MEAN_MOTION_DOT":-1.913e-5,"MEAN_MOTION_DDOT":0},{"OBJECT_NAME":"MMS 3","OBJECT_ID":"2015-011C","EPOCH":"2026-03-04T22:00:01.999584","MEAN_MOTION":0.2832289,"ECCENTRICITY":0.84126,"INCLINATION":70.7342,"RA_OF_ASC_NODE":350.2332,"ARG_OF_PERICENTER":165.2363,"MEAN_ANOMALY":102.9578,"EPHEMERIS_TYPE":0,"CLASSIFICATION_TYPE":"U","NORAD_CAT_ID":40484,"ELEMENT_SET_NO":999,"REV_AT_EPOCH":133,"BSTAR":0,"MEAN_MOTION_DOT":-1.913e-5,"MEAN_MOTION_DDOT":0},{"OBJECT_NAME":"MMS 4","OBJECT_ID":"2015-011D","EPOCH":"2026-03-04T22:00:01.999584","MEAN_MOTION":0.28322889,"ECCENTRICITY":0.8412105,"INCLINATION":70.7324,"RA_OF_ASC_NODE":350.2283,"ARG_OF_PERICENTER":165.2436,"MEAN_ANOMALY":102.9434,"EPHEMERIS_TYPE":0,"CLASSIFICATION_TYPE":"U","NORAD_CAT_ID":40485,"ELEMENT_SET_NO":999,"REV_AT_EPOCH":133,"BSTAR":0,"MEAN_MOTION_DOT":-1.913e-5,"MEAN_MOTION_DDOT":0},{"OBJECT_NAME":"EXPRESS-AM7","OBJECT_ID":"2015-012A","EPOCH":"2026-03-04T15:35:38.474304","MEAN_MOTION":1.00275777,"ECCENTRICITY":0.0002982,"INCLINATION":0.0133,"RA_OF_ASC_NODE":202.9028,"ARG_OF_PERICENTER":128.4383,"MEAN_ANOMALY":104.9716,"EPHEMERIS_TYPE":0,"CLASSIFICATION_TYPE":"U","NORAD_CAT_ID":40505,"ELEMENT_SET_NO":999,"REV_AT_EPOCH":3995,"BSTAR":0,"MEAN_MOTION_DOT":1.4e-6,"MEAN_MOTION_DDOT":0},{"OBJECT_NAME":"BEIDOU-3S IGSO-1S","OBJECT_ID":"2015-019A","EPOCH":"2026-03-04T14:51:28.684800","MEAN_MOTION":1.00273677,"ECCENTRICITY":0.0035837,"INCLINATION":49.3899,"RA_OF_ASC_NODE":296.7211,"ARG_OF_PERICENTER":190.4572,"MEAN_ANOMALY":354.5406,"EPHEMERIS_TYPE":0,"CLASSIFICATION_TYPE":"U","NORAD_CAT_ID":40549,"ELEMENT_SET_NO":999,"REV_AT_EPOCH":4002,"BSTAR":0,"MEAN_MOTION_DOT":-1.63e-6,"MEAN_MOTION_DDOT":0},{"OBJECT_NAME":"THOR 7","OBJECT_ID":"2015-022A","EPOCH":"2026-03-04T09:10:38.507232","MEAN_MOTION":1.00271373,"ECCENTRICITY":0.00026405,"INCLINATION":0.0104,"RA_OF_ASC_NODE":176.9566,"ARG_OF_PERICENTER":167.1962,"MEAN_ANOMALY":314.9628,"EPHEMERIS_TYPE":0,"CLASSIFICATION_TYPE":"U","NORAD_CAT_ID":40613,"ELEMENT_SET_NO":999,"REV_AT_EPOCH":3976,"BSTAR":0,"MEAN_MOTION_DOT":-2.0e-7,"MEAN_MOTION_DDOT":0},{"OBJECT_NAME":"TURKMENALEM52E/MONACOSAT","OBJECT_ID":"2015-023A","EPOCH":"2026-03-04T07:10:38.707968","MEAN_MOTION":1.00274707,"ECCENTRICITY":0.0002916,"INCLINATION":0.0164,"RA_OF_ASC_NODE":132.0989,"ARG_OF_PERICENTER":221.03,"MEAN_ANOMALY":328.6037,"EPHEMERIS_TYPE":0,"CLASSIFICATION_TYPE":"U","NORAD_CAT_ID":40617,"ELEMENT_SET_NO":999,"REV_AT_EPOCH":3979,"BSTAR":0,"MEAN_MOTION_DOT":9.2e-7,"MEAN_MOTION_DDOT":0},{"OBJECT_NAME":"DIRECTV 15","OBJECT_ID":"2015-026A","EPOCH":"2026-03-04T08:33:38.625984","MEAN_MOTION":1.00270982,"ECCENTRICITY":6.213e-5,"INCLINATION":0.0188,"RA_OF_ASC_NODE":106.7155,"ARG_OF_PERICENTER":122.0311,"MEAN_ANOMALY":318.8873,"EPHEMERIS_TYPE":0,"CLASSIFICATION_TYPE":"U","NORAD_CAT_ID":40663,"ELEMENT_SET_NO":999,"REV_AT_EPOCH":3941,"BSTAR":0,"MEAN_MOTION_DOT":-1.14e-6,"MEAN_MOTION_DDOT":0},{"OBJECT_NAME":"SKY MEXICO-1","OBJECT_ID":"2015-026B","EPOCH":"2026-03-04T08:17:38.511168","MEAN_MOTION":1.00269765,"ECCENTRICITY":0.00022389,"INCLINATION":0.0213,"RA_OF_ASC_NODE":129.4032,"ARG_OF_PERICENTER":232.9325,"MEAN_ANOMALY":205.3624,"EPHEMERIS_TYPE":0,"CLASSIFICATION_TYPE":"U","NORAD_CAT_ID":40664,"ELEMENT_SET_NO":999,"REV_AT_EPOCH":3940,"BSTAR":0,"MEAN_MOTION_DOT":-2.46e-6,"MEAN_MOTION_DDOT":0},{"OBJECT_NAME":"METEOSAT-11 (MSG-4)","OBJECT_ID":"2015-034A","EPOCH":"2026-03-04T09:02:38.798880","MEAN_MOTION":1.0026609,"ECCENTRICITY":0.00018032,"INCLINATION":2.9374,"RA_OF_ASC_NODE":71.6812,"ARG_OF_PERICENTER":270.6417,"MEAN_ANOMALY":324.8599,"EPHEMERIS_TYPE":0,"CLASSIFICATION_TYPE":"U","NORAD_CAT_ID":40732,"ELEMENT_SET_NO":999,"REV_AT_EPOCH":616,"BSTAR":0,"MEAN_MOTION_DOT":5.1e-7,"MEAN_MOTION_DDOT":0},{"OBJECT_NAME":"STAR ONE C4","OBJECT_ID":"2015-034B","EPOCH":"2026-03-04T08:09:38.820096","MEAN_MOTION":1.00272971,"ECCENTRICITY":0.00027493,"INCLINATION":0.0404,"RA_OF_ASC_NODE":14.4988,"ARG_OF_PERICENTER":333.5343,"MEAN_ANOMALY":226.4516,"EPHEMERIS_TYPE":0,"CLASSIFICATION_TYPE":"U","NORAD_CAT_ID":40733,"ELEMENT_SET_NO":999,"REV_AT_EPOCH":3896,"BSTAR":0,"MEAN_MOTION_DOT":-2.77e-6,"MEAN_MOTION_DDOT":0},{"OBJECT_NAME":"WGS F7 (USA 263)","OBJECT_ID":"2015-036A","EPOCH":"2026-03-04T13:40:38.508096","MEAN_MOTION":1.00262852,"ECCENTRICITY":4.84e-5,"INCLINATION":0.0151,"RA_OF_ASC_NODE":121.847,"ARG_OF_PERICENTER":6.4544,"MEAN_ANOMALY":54.1782,"EPHEMERIS_TYPE":0,"CLASSIFICATION_TYPE":"U","NORAD_CAT_ID":40746,"ELEMENT_SET_NO":999,"REV_AT_EPOCH":3882,"BSTAR":0,"MEAN_MOTION_DOT":5.0e-8,"MEAN_MOTION_DDOT":0},{"OBJECT_NAME":"ARIANE 2 DEB","OBJECT_ID":"1989-006CG","EPOCH":"2026-02-27T09:33:55.411200","MEAN_MOTION":2.25299,"ECCENTRICITY":0.71364051,"INCLINATION":8.0815,"RA_OF_ASC_NODE":291.0276,"ARG_OF_PERICENTER":19.7568,"MEAN_ANOMALY":282.0158,"EPHEMERIS_TYPE":0,"CLASSIFICATION_TYPE":"U","NORAD_CAT_ID":40787,"ELEMENT_SET_NO":999,"REV_AT_EPOCH":10096,"BSTAR":2.8951075e-5,"MEAN_MOTION_DOT":-1.6e-6,"MEAN_MOTION_DDOT":0},{"OBJECT_NAME":"CZ-3A DEB","OBJECT_ID":"2007-003AS","EPOCH":"2026-03-04T04:31:12.328896","MEAN_MOTION":1.72443829,"ECCENTRICITY":0.76667117,"INCLINATION":26.5941,"RA_OF_ASC_NODE":83.8856,"ARG_OF_PERICENTER":152.6914,"MEAN_ANOMALY":288.2072,"EPHEMERIS_TYPE":0,"CLASSIFICATION_TYPE":"U","NORAD_CAT_ID":40813,"ELEMENT_SET_NO":999,"REV_AT_EPOCH":8265,"BSTAR":0.0021246035,"MEAN_MOTION_DOT":2.14e-6,"MEAN_MOTION_DDOT":0},{"OBJECT_NAME":"CZ-3B DEB","OBJECT_ID":"2010-042X","EPOCH":"2026-03-04T12:39:49.850784","MEAN_MOTION":1.90416224,"ECCENTRICITY":0.7382299,"INCLINATION":25.9047,"RA_OF_ASC_NODE":183.4055,"ARG_OF_PERICENTER":116.3654,"MEAN_ANOMALY":333.9877,"EPHEMERIS_TYPE":0,"CLASSIFICATION_TYPE":"U","NORAD_CAT_ID":40814,"ELEMENT_SET_NO":999,"REV_AT_EPOCH":7877,"BSTAR":-0.0060354,"MEAN_MOTION_DOT":-1.49e-6,"MEAN_MOTION_DDOT":0},{"OBJECT_NAME":"CZ-3B DEB","OBJECT_ID":"2010-042Y","EPOCH":"2026-02-27T12:32:14.707680","MEAN_MOTION":1.91047331,"ECCENTRICITY":0.7337656,"INCLINATION":25.8904,"RA_OF_ASC_NODE":162.3234,"ARG_OF_PERICENTER":167.354,"MEAN_ANOMALY":233.6111,"EPHEMERIS_TYPE":0,"CLASSIFICATION_TYPE":"U","NORAD_CAT_ID":40815,"ELEMENT_SET_NO":999,"REV_AT_EPOCH":468,"BSTAR":-0.0082834612,"MEAN_MOTION_DOT":-3.72e-6,"MEAN_MOTION_DDOT":0},{"OBJECT_NAME":"CZ-3C DEB","OBJECT_ID":"2010-057AK","EPOCH":"2026-03-04T11:38:57.470496","MEAN_MOTION":2.25732219,"ECCENTRICITY":0.71272139,"INCLINATION":19.8675,"RA_OF_ASC_NODE":132.0568,"ARG_OF_PERICENTER":96.8286,"MEAN_ANOMALY":341.4244,"EPHEMERIS_TYPE":0,"CLASSIFICATION_TYPE":"U","NORAD_CAT_ID":40818,"ELEMENT_SET_NO":999,"REV_AT_EPOCH":9061,"BSTAR":7.945064e-5,"MEAN_MOTION_DOT":-4.7e-7,"MEAN_MOTION_DDOT":0},{"OBJECT_NAME":"CZ-3C DEB","OBJECT_ID":"2010-057AQ","EPOCH":"2026-03-04T08:53:35.683296","MEAN_MOTION":2.23709855,"ECCENTRICITY":0.71941401,"INCLINATION":20.3868,"RA_OF_ASC_NODE":102.6511,"ARG_OF_PERICENTER":137.3116,"MEAN_ANOMALY":309.2868,"EPHEMERIS_TYPE":0,"CLASSIFICATION_TYPE":"U","NORAD_CAT_ID":40823,"ELEMENT_SET_NO":999,"REV_AT_EPOCH":9067,"BSTAR":-2.5499354e-5,"MEAN_MOTION_DOT":-3.7e-7,"MEAN_MOTION_DDOT":0},{"OBJECT_NAME":"CZ-3C DEB","OBJECT_ID":"2010-057BB","EPOCH":"2026-03-01T11:11:25.935360","MEAN_MOTION":2.19667406,"ECCENTRICITY":0.71664956,"INCLINATION":19.8197,"RA_OF_ASC_NODE":176.3974,"ARG_OF_PERICENTER":22.5012,"MEAN_ANOMALY":357.1343,"EPHEMERIS_TYPE":0,"CLASSIFICATION_TYPE":"U","NORAD_CAT_ID":40834,"ELEMENT_SET_NO":999,"REV_AT_EPOCH":8814,"BSTAR":0.0019935,"MEAN_MOTION_DOT":-1.5e-6,"MEAN_MOTION_DDOT":0},{"OBJECT_NAME":"CZ-3C DEB","OBJECT_ID":"2010-057BC","EPOCH":"2026-02-27T13:37:09.914304","MEAN_MOTION":2.20288016,"ECCENTRICITY":0.71963488,"INCLINATION":19.5316,"RA_OF_ASC_NODE":153.3357,"ARG_OF_PERICENTER":68.3805,"MEAN_ANOMALY":350.2026,"EPHEMERIS_TYPE":0,"CLASSIFICATION_TYPE":"U","NORAD_CAT_ID":40835,"ELEMENT_SET_NO":999,"REV_AT_EPOCH":994,"BSTAR":0.00068875805,"MEAN_MOTION_DOT":-4.0e-8,"MEAN_MOTION_DDOT":0}]
